satname,norad_id,inclination_deg,eccentricity,mean_motion_rev_per_day,perigee_km,apogee_km,l1,l2
STARLINK-1422,45696,53.1532,0.0001748,15.40566657,443.24321641704955,445.62838786867815,1 45696U 20035AR  26204.23121205  .00047285  00000+0  11484-2 0  9995,2 45696  53.1532 136.3561 0001748 107.6997 252.4199 15.40566657339771
STARLINK-1351,45697,53.0409,4.52e-05,15.70987272,355.76977716932197,356.3785498585039,1 45697U 20035AS  26204.66111602  .00063031  00000+0  49416-3 0  9997,2 45697  53.0409  76.2582 0000452 319.7509  40.3474 15.70987272340635
STARLINK-1400,45700,53.0422,0.0001284,15.7591476,341.16651543469743,342.8922541623133,1 45700U 20035AV  26204.84223532  .00083429  00000+0  52721-3 0  9994,2 45700  53.0422  76.9141 0001284 200.2390 159.8578 15.75914760340637
STARLINK-1403,45701,53.1537,0.0004372,15.37546852,450.3793556489527,456.35282194979845,1 45701U 20035AW  26204.76933022  .00046423  00000+0  12445-2 0  9999,2 45701  53.1537 122.1339 0004372  58.8793 301.2639 15.37546852340018
STARLINK-1407,45703,53.0266,0.0003591,15.82067,322.1891561201728,327.00305903803564,1 45703U 20035AY  26203.88335239  .00123834  00000+0  58830-3 0  9990,2 45703  53.0266   6.0133 0003591 219.9767 140.0990 15.82067000341544
STARLINK-1423,45710,53.0412,0.0003184,15.74096578,345.06185480082695,349.34455144217554,1 45710U 20035BF  26203.37331771  .00074228  00000+0  50852-3 0  9997,2 45710  53.0412  80.6235 0003184 211.4330 148.6498 15.74096578340445
STARLINK-1433,45711,53.0411,0.0001447,15.8047367,328.12965134971546,330.0707257920885,1 45711U 20035BG  26204.83487272  .00101958  00000+0  52345-3 0  9998,2 45711  53.0411  70.6662 0001447 241.4687 118.6188 15.80473670340718
STARLINK-1434,45712,53.0471,0.000277,15.37928753,450.3430888528692,454.1271149973354,1 45712U 20035BH  26204.14627020  .00041747  00000+0  11072-2 0  9990,2 45712  53.0471 106.9647 0002770 114.6567 245.4724 15.37928753340162
STARLINK-1465,45731,53.0425,0.0003585,15.73476826,346.5573785688275,351.3807136038713,1 45731U 20038B   26204.54106500  .00071745  00000+0  50502-3 0  9996,2 45731  53.0425 279.3160 0003585 349.7139  10.3805 15.73476826337612
STARLINK-1471,45735,53.0427,0.0002968,15.56667564,395.29860188101975,399.3205069557225,1 45735U 20038F   26204.41479492  .00059191  00000+0  81598-3 0  9999,2 45735  53.0427 208.2328 0002968  16.2573 343.8533 15.56667564338612
STARLINK-1480,45741,53.0461,9.53e-05,15.69865516,358.63968388693866,359.92383590257396,1 45741U 20038M   26204.62006336  .00058253  00000+0  47916-3 0  9996,2 45741  53.0461 273.7325 0000953 121.0841 239.0269 15.69865516337719
STARLINK-1500,45744,53.0338,0.0003218,15.41335549,439.9718890008671,444.3614364381947,1 45744U 20038Q   26204.66954029  .00024383  00000+0  58363-3 0  9999,2 45744  53.0338 271.5754 0003218 357.7132   2.3856 15.41335549337749
STARLINK-1504,45746,53.0178,0.0002507,15.62070188,379.98333759826255,383.37270885090857,1 45746U 20038S   26204.26004894  .00041985  00000+0  47435-3 0  9998,2 45746  53.0178 203.6782 0002507  17.6848 342.4251 15.62070188338641
STARLINK-1506,45747,53.0737,0.000303,15.29534716,475.12503971815113,479.27937527789436,1 45747U 20038T   26204.65046157  .00026815  00000+0  93299-3 0  9994,2 45747  53.0737 291.7930 0003030 345.3272  14.7638 15.29534716337473
STARLINK-1464,45751,53.0445,0.0001302,15.56776205,396.11220831179344,397.8764525102333,1 45751U 20038X   26204.61931172  .00058777  00000+0  80719-3 0  9990,2 45751  53.0445 270.8896 0001302 129.8916 230.2209 15.56776205337754
STARLINK-1477,45754,53.0461,0.0001125,15.21169633,501.53736690115875,503.08546779506105,1 45754U 20038AA  26204.67255241  .00024651  00000+0  11031-2 0  9999,2 45754  53.0461 311.5842 0001125  11.9343 348.1678 15.21169633337186
STARLINK-1478,45755,53.0434,0.0004993,15.7627482,337.6511100439666,344.36084622192993,1 45755U 20038AB  26204.44783597  .00086726  00000+0  53877-3 0  9991,2 45755  53.0434 250.6586 0004993  21.6146 338.5084 15.76274820338001
STARLINK-1493,45759,53.0438,0.0001885,15.69823808,358.13106923185114,360.6711210937274,1 45759U 20038AF  26204.81864881  .00062473  00000+0  51413-3 0  9999,2 45759  53.0438 260.3317 0001885 121.9979 238.1221 15.69823808337908
STARLINK-1502,45764,53.0415,0.0003826,15.6884907,359.61267940845664,364.7703787989276,1 45764U 20038AL  26204.33553073  .00056288  00000+0  48295-3 0  9991,2 45764  53.0415 266.9517 0003826  22.6522 337.4662 15.68849070337787
STARLINK-1470,45772,53.0415,0.0001698,15.38611368,449.05527221027114,451.3741804565352,1 45772U 20038AU  26204.42505257  .00027472  00000+0  71745-3 0  9990,2 45772  53.0415 258.8980 0001698  34.3421 325.7692 15.38611368337904
STARLINK-1482,45773,53.1539,0.0001377,15.41586548,440.48727378813874,442.3653815285752,1 45773U 20038AV  26204.54914395  .00042776  00000+0  10060-2 0  9997,2 45773  53.1539 274.4148 0001377  49.0530 311.0594 15.41586548337725
STARLINK-1496,45780,53.0415,0.0006624,15.74357846,342.00475381986234,350.9134987679763,1 45780U 20038BC  26204.27818787  .00072391  00000+0  49015-3 0  9992,2 45780  53.0415 235.9490 0006624  24.7893 335.3442 15.74357846338195
STARLINK-1513,45786,53.1582,0.000191,15.32033219,468.4389209498768,471.05481258698273,1 45786U 20038BJ  26204.25092030  .00030440  00000+0  97845-3 0  9994,2 45786  53.1582 280.4130 0001910  60.5437 299.5754 15.32033219337610
STARLINK-1522,46027,53.0631,0.0001583,15.1480653,520.4737579343318,522.6582038980905,1 46027U 20055A   26204.30861742  .00018140  00000+0  97918-3 0  9996,2 46027  53.0631 232.3723 0001583  69.0996 291.0166 15.14806530329403
STARLINK-1523,46028,53.1588,0.0005014,15.3344994,462.09706268323043,468.95989042311885,1 46028U 20055B   26204.32141549  .00038404  00000+0  11764-2 0  9994,2 46028  53.1588 216.1161 0005014  32.0078 328.1228 15.33449940329675
STARLINK-1526,46029,53.1584,0.0001121,15.3169644,469.98284712016266,471.51836772174556,1 46029U 20055C   26204.33417343 -.00002787  00000+0 -78089-4 0  9996,2 46029  53.1584 216.2605 0001121  88.0141 272.0989 15.31696440329660
STARLINK-1555,46032,53.1581,0.0001036,15.31700094,470.03017138887753,471.4492586442302,1 46032U 20055F   26204.32018644 -.00001398  00000+0 -33288-4 0  9999,2 46032  53.1581 216.3324 0001036  73.8570 286.2545 15.31700094329669
STARLINK-1556,46033,53.1586,0.0001526,15.31700016,469.694808908288,471.7850861526749,1 46033U 20055G   26204.30154819 -.00000171  00000+0  62492-5 0  9990,2 46033  53.1586 216.4117 0001526  77.9509 282.1663 15.31700016329634
STARLINK-1557,46034,53.1587,0.0001067,15.316951,470.0238251756891,471.485378643536,1 46034U 20055H   26204.24562808 -.00002496  00000+0 -68692-4 0  9995,2 46034  53.1587 216.7330 0001067  61.7853 298.3256 15.31695100329622
STARLINK-1558,46035,53.1579,0.0001203,15.31699068,469.9188532338103,471.5666937073074,1 46035U 20055J   26204.25961784 -.00001662  00000+0 -41804-4 0  9993,2 46035  53.1579 216.7420 0001203  94.8989 265.2150 15.31699068329659
STARLINK-1560,46036,53.1587,0.0001097,15.31696788,469.99824719050685,471.5008929039759,1 46036U 20055K   26204.43671740 -.00002303  00000+0 -62480-4 0  9990,2 46036  53.1587 215.8689 0001097  96.6959 263.4167 15.31696788329681
STARLINK-1569,46039,53.1582,0.000103,15.31698092,470.0402479639315,471.4511177966042,1 46039U 20055N   26204.31552345 -.00002425  00000+0 -66397-4 0  9995,2 46039  53.1582 216.3405 0001030  90.7271 269.3849 15.31698092329659
STARLINK-1582,46043,53.1599,0.0001538,15.31698942,469.6897913034818,471.796506837336,1 46043U 20055S   26204.32409500 -.00001089  00000+0 -23331-4 0  9991,2 46043  53.1599 215.6127 0001538  95.8893 264.2283 15.31698942329665
STARLINK-1591,46045,53.1595,0.0001406,15.31730554,469.68597755564497,471.6118561554649,1 46045U 20055U   26204.41338301  .00005114  00000+0  17628-3 0  9995,2 46045  53.1595 215.8872 0001406  90.9014 269.2149 15.31730554329658
STARLINK-1524,46047,53.159,0.0001155,15.31699638,469.9500289114376,471.53211974660735,1 46047U 20055W   26204.29341771 -.00000458  00000+0 -29993-5 0  9996,2 46047  53.1590 203.0488 0001155  95.1143 264.9990 15.31699638329842
STARLINK-1527,46048,53.158,0.0001203,15.31693613,469.9351124134928,471.58295679941875,1 46048U 20055X   26204.28875314 -.00003061  00000+0 -86932-4 0  9999,2 46048  53.1580 203.0533 0001203 107.5918 252.5215 15.31693613329812
STARLINK-1540,46051,53.1571,8.25e-05,15.31695118,470.189514699533,471.3195818049944,1 46051U 20055AA  26204.27479536 -.00002515  00000+0 -69341-4 0  9996,2 46051  53.1571 203.3266 0000825  93.1863 266.9232 15.31695118329854
STARLINK-1541,46052,53.1412,0.0003704,16.30302301,189.29403871053364,194.16099434437638,1 46052U 20055AB  26204.85903163  .03553731  12089-4  73787-3 0  9994,2 46052  53.1412 162.2770 0003704 283.6664  76.3967 16.30302301330439
STARLINK-1543,46053,53.1584,0.0001255,15.31693411,469.9001002342811,471.61917329010794,1 46053U 20055AC  26204.37730904 -.00001756  00000+0 -44835-4 0  9995,2 46053  53.1584 202.6586 0001255  91.2657 268.8488 15.31693411329864
STARLINK-1548,46054,53.1584,0.0001189,15.31670539,470.01347642439487,471.6421602581959,1 46054U 20055AD  26204.39131949 -.00007474  00000+0 -22955-3 0  9993,2 46054  53.1584 202.6686 0001189  62.0929 298.0193 15.31670539329864
STARLINK-1554,46055,53.1592,0.0001675,15.31697585,469.6000061219074,471.89438232697375,1 46055U 20055AE  26204.37265176 -.00005524  00000+0 -16635-3 0  9994,2 46055  53.1592 202.6989 0001675 102.2802 257.8386 15.31697585329864
STARLINK-1564,46058,53.1597,0.0001036,15.31687597,470.06742068563653,471.48651565984255,1 46058U 20055AH  26204.91668980  .00057337  00000+0  18460-2 0  9991,2 46058  53.1597 201.5893 0001036  80.8099 217.9896 15.31687597  5804
STARLINK-1570,46059,53.1576,0.0001115,15.31697805,469.98288789970866,471.5101889287762,1 46059U 20055AJ  26204.40059314 -.00002205  00000+0 -59326-4 0  9995,2 46059  53.1576 202.4493 0001115  89.0775 271.0354 15.31697805329822
